{
    "links": {
        "self": "http://www.neowsapp.com/rest/v1/neo/3583808?api_key=iIulBulltgU6a56xZRHN4H3l9WmuAYTsLGpBGhQ2"
    },
    "id": "3583808",
    "neo_reference_id": "3583808",
    "name": "(2011 UG169)",
    "designation": "2011 UG169",
    "nasa_jpl_url": "http://ssd.jpl.nasa.gov/sbdb.cgi?sstr=3583808",
    "absolute_magnitude_h": 25.8,
    "estimated_diameter": {
        "kilometers": {
            "estimated_diameter_min": 0.0183888672,
            "estimated_diameter_max": 0.0411187571
        },
        "meters": {
            "estimated_diameter_min": 18.388867207,
            "estimated_diameter_max": 41.1187571041
        },
        "miles": {
            "estimated_diameter_min": 0.0114263088,
            "estimated_diameter_max": 0.0255500032
        },
        "feet": {
            "estimated_diameter_min": 60.3309310875,
            "estimated_diameter_max": 134.9040630575
        }
    },
    "is_potentially_hazardous_asteroid": false,
    "close_approach_data": [
        {
            "close_approach_date": "2001-01-27",
            "close_approach_date_full": "2001-Jan-27 20:36",
            "epoch_date_close_approach": 980627760000,
            "relative_velocity": {
                "kilometers_per_second": "5.1425971193",
                "kilometers_per_hour": "18513.3496295946",
                "miles_per_hour": "11503.4754962334"
            },
            "miss_distance": {
                "astronomical": "0.0457064299",
                "lunar": "17.7798012311",
                "kilometers": "6837584.558344313",
                "miles": "4248678.0307369994"
            },
            "orbiting_body": "Mars"
        },
        {
            "close_approach_date": "2011-11-03",
            "close_approach_date_full": "2011-Nov-03 08:21",
            "epoch_date_close_approach": 1320308460000,
            "relative_velocity": {
                "kilometers_per_second": "1.638791896",
                "kilometers_per_hour": "5899.6508255619",
                "miles_per_hour": "3665.8135921388"
            },
            "miss_distance": {
                "astronomical": "0.092804135",
                "lunar": "36.100808515",
                "kilometers": "13883300.92319245",
                "miles": "8626683.16905781"
            },
            "orbiting_body": "Earth"
        }
    ],
    "orbital_data": {
        "orbit_id": "5",
        "orbit_determination_date": "2017-04-06 08:52:12",
        "first_observation_date": "2011-10-24",
        "last_observation_date": "2011-11-27",
        "data_arc_in_days": 34,
        "observations_used": 17,
        "orbit_uncertainty": "7",
        "minimum_orbit_intersection": ".093399",
        "jupiter_tisserand_invariant": "4.770",
        "epoch_osculation": "2459000.5",
        "eccentricity": ".2182712965851525",
        "semi_major_axis": "1.382368202462629",
        "inclination": "1.571952010232194",
        "ascending_node_longitude": "108.9760149924202",
        "orbital_period": "593.6548635552991",
        "perihelion_distance": "1.080636902553024",
        "perihelion_argument": "295.4572062736008",
        "aphelion_distance": "1.684099502372233",
        "perihelion_time": "2458841.684413551766",
        "mean_anomaly": "96.30782906243039",
        "mean_motion": ".6064129549011366",
        "equinox": "J2000",
        "orbit_class": {
            "orbit_class_type": "AMO",
            "orbit_class_description": "Near-Earth asteroid orbits similar to that of 1221 Amor",
            "orbit_class_range": "1.017 AU < q (perihelion) < 1.3 AU"
        }
    },
    "is_sentry_object": false
}